{"type": "FeatureCollection", "features": [ {"type": "Feature", "properties": {"norad_id": 35744, "name": "IRIDIUM 33 DEB", "group": "iridium-33-debris", "lat": 72.94347484898904, "lon": -18.211794468966556, "alt_km": 663.9152696662104, "timestamp": "2025-12-03T06:58:43.627060+00:00", "meta": {"OBJECT_NAME": "IRIDIUM 33 DEB", "OBJECT_ID": "1997-051RX", "EPOCH": "2025-12-02T17:34:56.858592", "MEAN_MOTION": 14.70764219, "ECCENTRICITY": 0.0019253, "INCLINATION": 86.3279, "RA_OF_ASC_NODE": 329.9579, "ARG_OF_PERICENTER": 229.793, "MEAN_ANOMALY": 130.1601, "EPHEMERIS_TYPE": 0, "CLASSIFICATION_TYPE": "U", "NORAD_CAT_ID": 35744, "ELEMENT_SET_NO": 999, "REV_AT_EPOCH": 87184, "BSTAR": 0.0015573, "MEAN_MOTION_DOT": 9.554e-05, "MEAN_MOTION_DDOT": 0}, "tle": {"line1": "1 35744U 97051RX  25336.73260253  .00009554  00000+0  15573-2 0  9997", "line2": "2 35744  86.3279 329.9579 0019253 229.7930 130.1601 14.70764219871847"}}, "geometry": {"type": "Point", "coordinates": [-18.211794468966556, 72.94347484898904]}}, {"type": "Feature", "properties": {"norad_id": 35797, "name": "IRIDIUM 33 DEB", "group": "iridium-33-debris", "lat": 54.721126465305865, "lon": 149.118008970013, "alt_km": 612.4828137094419, "timestamp": "2025-12-03T06:58:43.627077+00:00", "meta": {"OBJECT_NAME": "IRIDIUM 33 DEB", "OBJECT_ID": "1997-051SF", "EPOCH": "2025-12-01T07:25:51.189600", "MEAN_MOTION": 14.82266268, "ECCENTRICITY": 0.00115219, "INCLINATION": 86.3361, "RA_OF_ASC_NODE": 335.2237, "ARG_OF_PERICENTER": 188.9295, "MEAN_ANOMALY": 171.1725, "EPHEMERIS_TYPE": 0, "CLASSIFICATION_TYPE": "U", "NORAD_CAT_ID": 35797, "ELEMENT_SET_NO": 999, "REV_AT_EPOCH": 87171, "BSTAR": 0.0020950806, "MEAN_MOTION_DOT": 0.0001679, "MEAN_MOTION_DDOT": 0}, "tle": {"line1": "1 35797U 97051SF  25335.30962025  .00016790  00000+0  20951-2 0  9999", "line2": "2 35797  86.3361 335.2237 0011521 188.9295 171.1725 14.82266268871710"}}, "geometry": {"type": "Point", "coordinates": [149.118008970013, 54.721126465305865]}}, {"type": "Feature", "properties": {"norad_id": 35806, "name": "IRIDIUM 33 DEB", "group": "iridium-33-debris", "lat": -29.68618992234141, "lon": -153.12119056512913, "alt_km": 712.2480585512076, "timestamp": "2025-12-03T06:58:43.627094+00:00", "meta": {"OBJECT_NAME": "IRIDIUM 33 DEB", "OBJECT_ID": "1997-051SQ", "EPOCH": "2025-11-21T22:04:29.472384", "MEAN_MOTION": 14.57052239, "ECCENTRICITY": 0.00159672, "INCLINATION": 86.3448, "RA_OF_ASC_NODE": 29.7928, "ARG_OF_PERICENTER": 137.8294, "MEAN_ANOMALY": 222.4146, "EPHEMERIS_TYPE": 0, "CLASSIFICATION_TYPE": "U", "NORAD_CAT_ID": 35806, "ELEMENT_SET_NO": 999, "REV_AT_EPOCH": 86021, "BSTAR": 0.0011489261, "MEAN_MOTION_DOT": 5.199e-05, "MEAN_MOTION_DDOT": 0}, "tle": {"line1": "1 35806U 97051SQ  25325.91978556  .00005199  00000+0  11489-2 0  9999", "line2": "2 35806  86.3448  29.7928 0015967 137.8294 222.4146 14.57052239860212"}}, "geometry": {"type": "Point", "coordinates": [-153.12119056512913, -29.68618992234141]}}, {"type": "Feature", "properties": {"norad_id": 35809, "name": "IRIDIUM 33 DEB", "group": "iridium-33-debris", "lat": -46.056772234867104, "lon": -24.16913928387002, "alt_km": 644.7733134351656, "timestamp": "2025-12-03T06:58:43.627110+00:00", "meta": {"OBJECT_NAME": "IRIDIUM 33 DEB", "OBJECT_ID": "1997-051ST", "EPOCH": "2025-12-01T17:44:51.390816", "MEAN_MOTION": 14.75313912, "ECCENTRICITY": 0.00099663, "INCLINATION": 86.3281, "RA_OF_ASC_NODE": 340.3571, "ARG_OF_PERICENTER": 290.7283, "MEAN_ANOMALY": 69.2867, "EPHEMERIS_TYPE": 0, "CLASSIFICATION_TYPE": "U", "NORAD_CAT_ID": 35809, "ELEMENT_SET_NO": 999, "REV_AT_EPOCH": 86645, "BSTAR": 0.0015973304, "MEAN_MOTION_DOT": 0.00010859, "MEAN_MOTION_DDOT": 0}, "tle": {"line1": "1 35809U 97051ST  25335.73948369  .00010859  00000+0  15973-2 0  9993", "line2": "2 35809  86.3281 340.3571 0009966 290.7283  69.2867 14.75313912866452"}}, "geometry": {"type": "Point", "coordinates": [-24.16913928387002, -46.056772234867104]}}, {"type": "Feature", "properties": {"norad_id": 35846, "name": "IRIDIUM 33 DEB", "group": "iridium-33-debris", "lat": 63.03440372241034, "lon": -124.28731453010757, "alt_km": 741.6934090348868, "timestamp": "2025-12-03T06:58:43.627129+00:00", "meta": {"OBJECT_NAME": "IRIDIUM 33 DEB", "OBJECT_ID": "1997-051SW", "EPOCH": "2025-11-15T14:04:07.017312", "MEAN_MOTION": 14.42992821, "ECCENTRICITY": 0.00163082, "INCLINATION": 86.3745, "RA_OF_ASC_NODE": 70.4244, "ARG_OF_PERICENTER": 263.1259, "MEAN_ANOMALY": 96.8086, "EPHEMERIS_TYPE": 0, "CLASSIFICATION_TYPE": "U", "NORAD_CAT_ID": 35846, "ELEMENT_SET_NO": 999, "REV_AT_EPOCH": 70937, "BSTAR": 0.0011049939, "MEAN_MOTION_DOT": 3.722e-05, "MEAN_MOTION_DDOT": 0}, "tle": {"line1": "1 35846U 97051SW  25319.58619233  .00003722  00000+0  11050-2 0  9997", "line2": "2 35846  86.3745  70.4244 0016308 263.1259  96.8086 14.42992821709373"}}, "geometry": {"type": "Point", "coordinates": [-124.28731453010757, 63.03440372241034]}}, {"type": "Feature", "properties": {"norad_id": 35848, "name": "IRIDIUM 33 DEB", "group": "iridium-33-debris", "lat": 13.191864113054395, "lon": -160.47325388480917, "alt_km": 634.1810183215575, "timestamp": "2025-12-03T06:58:43.627146+00:00", "meta": {"OBJECT_NAME": "IRIDIUM 33 DEB", "OBJECT_ID": "1997-051SY", "EPOCH": "2025-12-01T10:21:45.439488", "MEAN_MOTION": 14.7824162, "ECCENTRICITY": 0.00067103, "INCLINATION": 86.3925, "RA_OF_ASC_NODE": 21.2088, "ARG_OF_PERICENTER": 240.9704, "MEAN_ANOMALY": 119.0844, "EPHEMERIS_TYPE": 0, "CLASSIFICATION_TYPE": "U", "NORAD_CAT_ID": 35848, "ELEMENT_SET_NO": 999, "REV_AT_EPOCH": 66523, "BSTAR": 0.0018930249, "MEAN_MOTION_DOT": 0.00013775, "MEAN_MOTION_DDOT": 0}, "tle": {"line1": "1 35848U 97051SY  25335.43177592  .00013775  00000+0  18930-2 0  9991", "line2": "2 35848  86.3925  21.2088 0006710 240.9704 119.0844 14.78241620665238"}}, "geometry": {"type": "Point", "coordinates": [-160.47325388480917, 13.191864113054395]}}, {"type": "Feature", "properties": {"norad_id": 35850, "name": "IRIDIUM 33 DEB", "group": "iridium-33-debris", "lat": 53.969455677632844, "lon": 163.50946482807555, "alt_km": 629.9928616562966, "timestamp": "2025-12-03T06:58:43.627162+00:00", "meta": {"OBJECT_NAME": "IRIDIUM 33 DEB", "OBJECT_ID": "1997-051TA", "EPOCH": "2025-12-02T07:40:10.229376", "MEAN_MOTION": 14.7843662, "ECCENTRICITY": 0.0007989, "INCLINATION": 86.3497, "RA_OF_ASC_NODE": 348.9861, "ARG_OF_PERICENTER": 227.4621, "MEAN_ANOMALY": 132.5925, "EPHEMERIS_TYPE": 0, "CLASSIFICATION_TYPE": "U", "NORAD_CAT_ID": 35850, "ELEMENT_SET_NO": 999, "REV_AT_EPOCH": 71203, "BSTAR": 0.0019125, "MEAN_MOTION_DOT": 0.00013983, "MEAN_MOTION_DDOT": 0}, "tle": {"line1": "1 35850U 97051TA  25336.31956284  .00013983  00000+0  19125-2 0  9993", "line2": "2 35850  86.3497 348.9861 0007989 227.4621 132.5925 14.78436620712037"}}, "geometry": {"type": "Point", "coordinates": [163.50946482807555, 53.969455677632844]}}, {"type": "Feature", "properties": {"norad_id": 35915, "name": "IRIDIUM 33 DEB", "group": "iridium-33-debris", "lat": 1.4142830261949615, "lon": -12.634291810517128, "alt_km": 636.1496721862786, "timestamp": "2025-12-03T06:58:43.627179+00:00", "meta": {"OBJECT_NAME": "IRIDIUM 33 DEB", "OBJECT_ID": "1997-051TY", "EPOCH": "2025-12-01T19:16:49.071072", "MEAN_MOTION": 14.80276921, "ECCENTRICITY": 0.00096955, "INCLINATION": 86.3446, "RA_OF_ASC_NODE": 347.9542, "ARG_OF_PERICENTER": 230.6927, "MEAN_ANOMALY": 129.3435, "EPHEMERIS_TYPE": 0, "CLASSIFICATION_TYPE": "U", "NORAD_CAT_ID": 35915, "ELEMENT_SET_NO": 999, "REV_AT_EPOCH": 7924, "BSTAR": 0.0016581633, "MEAN_MOTION_DOT": 0.00012667, "MEAN_MOTION_DDOT": 0}, "tle": {"line1": "1 35915U 97051TY  25335.80334573  .00012667  00000+0  16582-2 0  9991", "line2": "2 35915  86.3446 347.9542 0009695 230.6927 129.3435 14.80276921 79247"}}, "geometry": {"type": "Point", "coordinates": [-12.634291810517128, 1.4142830261949615]}}, {"type": "Feature", "properties": {"norad_id": 35918, "name": "IRIDIUM 33 DEB", "group": "iridium-33-debris", "lat": 73.21087696319681, "lon": 91.91356588046207, "alt_km": 726.4074073689326, "timestamp": "2025-12-03T06:58:43.627195+00:00", "meta": {"OBJECT_NAME": "IRIDIUM 33 DEB", "OBJECT_ID": "1997-051UB", "EPOCH": "2025-11-30T01:41:55.281408", "MEAN_MOTION": 14.51050885, "ECCENTRICITY": 0.00264066, "INCLINATION": 86.4001, "RA_OF_ASC_NODE": 81.2516, "ARG_OF_PERICENTER": 211.3482, "MEAN_ANOMALY": 332.4953, "EPHEMERIS_TYPE": 0, "CLASSIFICATION_TYPE": "U", "NORAD_CAT_ID": 35918, "ELEMENT_SET_NO": 999, "REV_AT_EPOCH": 85023, "BSTAR": 0.0014523463, "MEAN_MOTION_DOT": 5.795e-05, "MEAN_MOTION_DDOT": 0}, "tle": {"line1": "1 35918U 97051UB  25334.07077872  .00005795  00000+0  14523-2 0  9995", "line2": "2 35918  86.4001  81.2516 0026406 211.3482 332.4953 14.51050885850233"}}, "geometry": {"type": "Point", "coordinates": [91.91356588046207, 73.21087696319681]}}, {"type": "Feature", "properties": {"norad_id": 35929, "name": "IRIDIUM 33 DEB", "group": "iridium-33-debris", "lat": -80.61717786746304, "lon": 159.9235175976976, "alt_km": 582.8670513419347, "timestamp": "2025-12-03T06:58:43.627212+00:00", "meta": {"OBJECT_NAME": "IRIDIUM 33 DEB", "OBJECT_ID": "1997-051UN", "EPOCH": "2025-12-02T05:49:26.497920", "MEAN_MOTION": 15.01302222, "ECCENTRICITY": 0.0019551, "INCLINATION": 86.3366, "RA_OF_ASC_NODE": 317.6054, "ARG_OF_PERICENTER": 65.7136, "MEAN_ANOMALY": 294.6136, "EPHEMERIS_TYPE": 0, "CLASSIFICATION_TYPE": "U", "NORAD_CAT_ID": 35929, "ELEMENT_SET_NO": 999, "REV_AT_EPOCH": 87622, "BSTAR": 0.0029859, "MEAN_MOTION_DOT": 0.00038744, "MEAN_MOTION_DDOT": 0}, "tle": {"line1": "1 35929U 97051UN  25336.24266780  .00038744  00000+0  29859-2 0  9994", "line2": "2 35929  86.3366 317.6054 0019551  65.7136 294.6136 15.01302222876221"}}, "geometry": {"type": "Point", "coordinates": [159.9235175976976, -80.61717786746304]}}]}